[
    {
        "Altitude(m)": 703595.9369559883,
        "Argument of Periapsis(deg)": 0.004556048474650827,
        "Eccentricity": 0.0,
        "Inclination(deg)": 45.0,
        "Latitude(deg)": 25.48542827866855,
        "Longitude(deg)": 153.00970497393362,
        "Mean Anomaly(deg)": 37.34058665899232,
        "RAAN(deg)": 224.9956992234167,
        "Satellite Name": "Constellation 1 992",
        "Satellite Number": 992,
        "Semi-Major Axis(m)": 7083131.272910544,
        "Time(s)": 76
    },
    {
        "Altitude(m)": 703600.8577556099,
        "Argument of Periapsis(deg)": 0.004615996480896233,
        "Eccentricity": 0.0,
        "Inclination(deg)": 45.0,
        "Latitude(deg)": 25.52341549341632,
        "Longitude(deg)": 153.05816259945007,
        "Mean Anomaly(deg)": 37.40128779924221,
        "RAAN(deg)": 224.99564263425114,
        "Satellite Name": "Constellation 1 992",
        "Satellite Number": 992,
        "Semi-Major Axis(m)": 7083131.272910544,
        "Time(s)": 77
    },
    {
        "Altitude(m)": 703605.7875836287,
        "Argument of Periapsis(deg)": 0.004675944487141638,
        "Eccentricity": 0.0,
        "Inclination(deg)": 45.0,
        "Latitude(deg)": 25.561383657231534,
        "Longitude(deg)": 153.10665331563368,
        "Mean Anomaly(deg)": 37.461988939492144,
        "RAAN(deg)": 224.9955860450856,
        "Satellite Name": "Constellation 1 992",
        "Satellite Number": 992,
        "Semi-Major Axis(m)": 7083131.272910544,
        "Time(s)": 78
    },
    {
        "Altitude(m)": 703610.7264026984,
        "Argument of Periapsis(deg)": 0.004735892493387044,
        "Eccentricity": 0.0,
        "Inclination(deg)": 45.0,
        "Latitude(deg)": 25.59933272612211,
        "Longitude(deg)": 153.15517718314877,
        "Mean Anomaly(deg)": 37.52269007974201,
        "RAAN(deg)": 224.99552945592,
        "Satellite Name": "Constellation 1 992",
        "Satellite Number": 992,
        "Semi-Major Axis(m)": 7083131.272910544,
        "Time(s)": 79
    },
    {
        "Altitude(m)": 703615.6741754587,
        "Argument of Periapsis(deg)": 0.004795840499632449,
        "Eccentricity": 0.0,
        "Inclination(deg)": 45.0,
        "Latitude(deg)": 25.637262656031627,
        "Longitude(deg)": 153.20373426266084,
        "Mean Anomaly(deg)": 37.583391219991896,
        "RAAN(deg)": 224.99547286675443,
        "Satellite Name": "Constellation 1 992",
        "Satellite Number": 992,
        "Semi-Major Axis(m)": 7083131.272910544,
        "Time(s)": 80
    },
    {
        "Altitude(m)": 703620.630864509,
        "Argument of Periapsis(deg)": 0.004855788505877855,
        "Eccentricity": 0.0,
        "Inclination(deg)": 45.0,
        "Latitude(deg)": 25.675173402839107,
        "Longitude(deg)": 153.25232461483606,
        "Mean Anomaly(deg)": 37.64409236024178,
        "RAAN(deg)": 224.99541627758887,
        "Satellite Name": "Constellation 1 992",
        "Satellite Number": 992,
        "Semi-Major Axis(m)": 7083131.272910544,
        "Time(s)": 81
    },
    {
        "Altitude(m)": 703625.5964324247,
        "Argument of Periapsis(deg)": 0.00491573651212326,
        "Eccentricity": 0.0,
        "Inclination(deg)": 45.0,
        "Latitude(deg)": 25.713064922359443,
        "Longitude(deg)": 153.3009481322441,
        "Mean Anomaly(deg)": 37.704793500491746,
        "RAAN(deg)": 224.9953596884233,
        "Satellite Name": "Constellation 1 992",
        "Satellite Number": 992,
        "Semi-Major Axis(m)": 7083131.272910544,
        "Time(s)": 82
    },
    {
        "Altitude(m)": 703630.5708417619,
        "Argument of Periapsis(deg)": 0.004975684518368666,
        "Eccentricity": 0.0,
        "Inclination(deg)": 45.0,
        "Latitude(deg)": 25.750937170341878,
        "Longitude(deg)": 153.3496052117458,
        "Mean Anomaly(deg)": 37.76549464074163,
        "RAAN(deg)": 224.99530309925774,
        "Satellite Name": "Constellation 1 992",
        "Satellite Number": 992,
        "Semi-Major Axis(m)": 7083131.272910544,
        "Time(s)": 83
    },
    {
        "Altitude(m)": 703635.5540550388,
        "Argument of Periapsis(deg)": 0.005035632524614072,
        "Eccentricity": 0.0,
        "Inclination(deg)": 45.0,
        "Latitude(deg)": 25.78879010247177,
        "Longitude(deg)": 153.3982957459106,
        "Mean Anomaly(deg)": 37.82619578099149,
        "RAAN(deg)": 224.99524651009216,
        "Satellite Name": "Constellation 1 992",
        "Satellite Number": 992,
        "Semi-Major Axis(m)": 7083131.272910544,
        "Time(s)": 84
    },
    {
        "Altitude(m)": 703640.5460347538,
        "Argument of Periapsis(deg)": 0.0050955805308594785,
        "Eccentricity": 0.0,
        "Inclination(deg)": 45.0,
        "Latitude(deg)": 25.826623674369426,
        "Longitude(deg)": 153.4470197954045,
        "Mean Anomaly(deg)": 37.88689692124143,
        "RAAN(deg)": 224.9951899209266,
        "Satellite Name": "Constellation 1 992",
        "Satellite Number": 992,
        "Semi-Major Axis(m)": 7083131.272910544,
        "Time(s)": 85
    },
    {
        "Altitude(m)": 703645.5467433746,
        "Argument of Periapsis(deg)": 0.005155528537104883,
        "Eccentricity": 0.0,
        "Inclination(deg)": 45.0,
        "Latitude(deg)": 25.86443784159013,
        "Longitude(deg)": 153.49577742089247,
        "Mean Anomaly(deg)": 37.94759806149132,
        "RAAN(deg)": 224.99513333176105,
        "Satellite Name": "Constellation 1 992",
        "Satellite Number": 992,
        "Semi-Major Axis(m)": 7083131.272910544,
        "Time(s)": 86
    },
    {
        "Altitude(m)": 703650.5561433448,
        "Argument of Periapsis(deg)": 0.0052154765433502885,
        "Eccentricity": 0.0,
        "Inclination(deg)": 45.0,
        "Latitude(deg)": 25.90223255962416,
        "Longitude(deg)": 153.54456868303834,
        "Mean Anomaly(deg)": 38.00829920174123,
        "RAAN(deg)": 224.99507674259544,
        "Satellite Name": "Constellation 1 992",
        "Satellite Number": 992,
        "Semi-Major Axis(m)": 7083131.272910544,
        "Time(s)": 87
    },
    {
        "Altitude(m)": 703655.5741970809,
        "Argument of Periapsis(deg)": 0.005275424549595694,
        "Eccentricity": 0.0,
        "Inclination(deg)": 45.0,
        "Latitude(deg)": 25.94000778389662,
        "Longitude(deg)": 153.59339364250428,
        "Mean Anomaly(deg)": 38.069000341991114,
        "RAAN(deg)": 224.9950201534299,
        "Satellite Name": "Constellation 1 992",
        "Satellite Number": 992,
        "Semi-Major Axis(m)": 7083131.272910544,
        "Time(s)": 88
    },
    {
        "Altitude(m)": 703660.6008669736,
        "Argument of Periapsis(deg)": 0.0053353725558411,
        "Eccentricity": 0.0,
        "Inclination(deg)": 45.0,
        "Latitude(deg)": 25.97776346976765,
        "Longitude(deg)": 153.64225219185332,
        "Mean Anomaly(deg)": 38.12970148224105,
        "RAAN(deg)": 224.99496356426434,
        "Satellite Name": "Constellation 1 992",
        "Satellite Number": 992,
        "Semi-Major Axis(m)": 7083131.272910544,
        "Time(s)": 89
    },
    {
        "Altitude(m)": 703665.6361153881,
        "Argument of Periapsis(deg)": 0.005395320562086505,
        "Eccentricity": 0.0,
        "Inclination(deg)": 45.0,
        "Latitude(deg)": 26.015499572531294,
        "Longitude(deg)": 153.69114472793763,
        "Mean Anomaly(deg)": 38.190402622490915,
        "RAAN(deg)": 224.99490697509876,
        "Satellite Name": "Constellation 1 992",
        "Satellite Number": 992,
        "Semi-Major Axis(m)": 7083131.272910544,
        "Time(s)": 90
    },
    {
        "Altitude(m)": 703670.6799046568,
        "Argument of Periapsis(deg)": 0.00545526856833191,
        "Eccentricity": 0.0,
        "Inclination(deg)": 45.0,
        "Latitude(deg)": 26.053216047416964,
        "Longitude(deg)": 153.7400711433155,
        "Mean Anomaly(deg)": 38.2511037627408,
        "RAAN(deg)": 224.9948503859332,
        "Satellite Name": "Constellation 1 992",
        "Satellite Number": 992,
        "Semi-Major Axis(m)": 7083131.272910544,
        "Time(s)": 91
    },
    {
        "Altitude(m)": 703675.7321970947,
        "Argument of Periapsis(deg)": 0.005515216574577317,
        "Eccentricity": 0.0,
        "Inclination(deg)": 45.0,
        "Latitude(deg)": 26.0909128495883,
        "Longitude(deg)": 153.78903149863913,
        "Mean Anomaly(deg)": 38.311804902990765,
        "RAAN(deg)": 224.9947937967676,
        "Satellite Name": "Constellation 1 992",
        "Satellite Number": 992,
        "Semi-Major Axis(m)": 7083131.272910544,
        "Time(s)": 92
    },
    {
        "Altitude(m)": 703680.7929549895,
        "Argument of Periapsis(deg)": 0.005575164580822722,
        "Eccentricity": 0.0,
        "Inclination(deg)": 45.0,
        "Latitude(deg)": 26.128589934143225,
        "Longitude(deg)": 153.83802585455732,
        "Mean Anomaly(deg)": 38.3725060432406,
        "RAAN(deg)": 224.99473720760204,
        "Satellite Name": "Constellation 1 992",
        "Satellite Number": 992,
        "Semi-Major Axis(m)": 7083131.272910544,
        "Time(s)": 93
    },
    {
        "Altitude(m)": 703685.8621406059,
        "Argument of Periapsis(deg)": 0.005635112587068129,
        "Eccentricity": 0.0,
        "Inclination(deg)": 45.0,
        "Latitude(deg)": 26.166247256114158,
        "Longitude(deg)": 153.8870542717154,
        "Mean Anomaly(deg)": 38.43320718349048,
        "RAAN(deg)": 224.9946806184365,
        "Satellite Name": "Constellation 1 992",
        "Satellite Number": 992,
        "Semi-Major Axis(m)": 7083131.272910544,
        "Time(s)": 94
    }
]